EOSSAT-1                
1 55053U 23001AW  26068.73619225  .00007695  00000+0  24844-3 0  9992
2 55053  97.3357 130.2294 0011263 110.3168 249.9285 15.32339828176689
STARLINK-31024          
1 58786U 24011X   26068.26762167 -.00000139  00000+0  74227-5 0  9991
2 58786  53.1619  13.6627 0001160  88.5246 271.5888 15.30191356120238
